E-ST@R-II               
1 41459U 16025D   22156.05808056  .00004659  00000+0  20625-3 0  9996
2 41459  98.1840 320.2957 0144837 311.6096  47.2774 15.13250107335621
AAUSAT 4                
1 41460U 16025E   22156.02473699  .00008296  00000+0  32476-3 0  9994
2 41460  98.1792 326.3494 0126137 288.1915  70.5580 15.18967908336054
BEESAT-4                
1 41619U 16040W   22156.08894982  .00008821  00000+0  29815-3 0  9992
2 41619  97.2170 207.0510 0010844 153.2467 206.9336 15.30815246318836
RAVAN                   
1 41849U 16067B   22155.90973449  .00001769  00000+0  14451-3 0  9996
2 41849  97.9994 292.5254 0017663  25.5483 334.6609 15.00659014304115
CELTEE 1                
1 41850U 16067C   22155.82580282  .00001119  00000+0  98995-4 0  9993
2 41850  97.9952 287.5404 0008364  24.3999 335.7617 14.98408689303867
OPTICUBE 04             
1 41851U 16067D   22155.80067335  .00000246  00000+0  26304-4 0  9996
2 41851  97.9953 286.5848 0009528  30.2048 329.9721 14.97758139303817
AEROCUBE 8D             
1 41852U 16067E   22155.81452623  .00001057  00000+0  93998-4 0  9990
2 41852  97.9930 286.5929 0009533  25.7284 334.4410 14.98301832303800
AEROCUBE 8C             
1 41853U 16067F   22155.59503166  .00001174  00000+0  10390-3 0  9999
2 41853  97.9944 286.1929 0010634  32.2917 327.8954 14.98283733303765
PROMETHEUS 2-1          
1 41854U 16067G   22155.90739124  .00002688  00000+0  22462-3 0  9994
2 41854  97.9928 287.5504 0009773  37.5668 322.6235 14.99389150303862
PROMETHEUS 2-3          
1 41855U 16067H   22155.90014233  .00002317  00000+0  19424-3 0  9995
2 41855  97.9925 287.6221 0008789  33.3148 326.8625 14.99407514303864
INS-1B                  
1 41954U 17008G   22156.15520652  .00006975  00000+0  23368-3 0  9992
2 41954  97.2576 216.2968 0006009 275.8284  84.2273 15.31223666294866
BGUSAT                  
1 41999U 17008BD  22155.41410933  .00017790  00000+0  44504-3 0  9991
2 41999  97.2811 225.8698 0004013 255.6866 104.3935 15.40160145294634
DIDO-2                  
1 42000U 17008BE  22155.13379761  .00003869  00000+0  14247-3 0  9990
2 42000  97.2565 214.7639 0005963 313.2703  46.8039 15.28407963294039
PEASSS                  
1 42015U 17008BV  22156.11467262  .00006350  00000+0  21196-3 0  9998
2 42015  97.2632 219.4597 0003721 301.9381  58.1498 15.31385387294888
AL-FARABI 1             
1 42016U 17008BW  22155.89709398  .00008754  00000+0  26712-3 0  9991
2 42016  97.2696 222.1856 0003196 291.7609  68.3294 15.34155371295129
NAYIF-1 (EO-88)         
1 42017U 17008BX  22156.17406697  .00008928  00000+0  27122-3 0  9999
2 42017  97.2688 222.4690 0003344 286.4345  73.6530 15.34287750295199
UCLSAT                  
1 42765U 17036A   22156.09074974  .00007008  00000+0  24712-3 0  9990
2 42765  97.1975 199.1436 0009382  20.7882 339.3739 15.29521922275375
LITUANICASAT-2          
1 42768U 17036D   22156.08348340  .00015598  00000+0  46006-3 0  9996
2 42768  97.2062 201.7103 0009361   0.7269 359.3987 15.35040754275352
AALTO-1                 
1 42775U 17036L   22155.90513438  .00004278  00000+0  17138-3 0  9993
2 42775  97.1978 194.1202 0012733  19.9341 340.2393 15.25482661274861
URSA MAIOR              
1 42776U 17036M   22155.56268741  .00004626  00000+0  18221-3 0  9991
2 42776  97.1992 194.5058 0012392  20.1193 340.0532 15.26016253274843
COMPASS 2               
1 42777U 17036N   22155.36721671  .00009773  00000+0  31675-3 0  9992
2 42777  97.2046 200.4430 0008957   9.8834 350.2583 15.32156643275142
DIAMOND RED             
1 42783U 17036U   22156.06930761  .00005480  00000+0  20733-3 0  9993
2 42783  97.1997 197.2934 0010839  24.8372 335.3387 15.27291715275051
PEGASUS                 
1 42784U 17036V   22155.87468308  .00006682  00000+0  24207-3 0  9990
2 42784  97.1994 198.2156 0010293  23.2359 336.9345 15.28646229275098
DIAMOND GREEN           
1 42785U 17036W   22155.87117359  .00004357  00000+0  16528-3 0  9992
2 42785  97.2002 197.1669 0010767  26.5538 333.6251 15.27312218275095
DIAMOND BLUE            
1 42786U 17036X   22155.86994166  .00005460  00000+0  20651-3 0  9999
2 42786  97.2000 197.1581 0010749  27.0780 333.1019 15.27302482275091
NUDTSAT                 
1 42787U 17036Y   22155.90025300  .00013858  00000+0  43285-3 0  9998
2 42787  97.2030 202.2403 0008210  11.4580 348.6838 15.33260447275171
SUCHAI                  
1 42788U 17036Z   22155.36188570  .00007747  00000+0  26603-3 0  9993
2 42788  97.2000 199.3147 0009367  21.0317 339.1308 15.30354672275188
SKCUBE                  
1 42789U 17036AA  22155.09061348  .00007065  00000+0  24824-3 0  9993
2 42789  97.1995 198.5344 0009549  23.0316 337.1351 15.29636021275033
VZLUSAT-1               
1 42790U 17036AB  22155.90669022  .00010387  00000+0  32658-3 0  9993
2 42790  97.2025 202.2178 0007759  13.9797 346.1659 15.33124762275322
ROBUSTA-1B              
1 42792U 17036AD  22155.83537431  .00007407  00000+0  25623-3 0  9998
2 42792  97.1996 199.8084 0008997  20.9286 339.2321 15.30135188275198
CICERO 6                
1 42793U 17036AE  22155.56456467  .00004678  00000+0  17787-3 0  9997
2 42793  97.1979 197.3628 0009385  27.8330 332.3410 15.27212811275104
CORVUS BC2              
1 42846U 17042X   22155.34569967  .00001013  00000+0  10271-3 0  9990
2 42846  97.4245  13.3966 0010602  47.7406 312.4712 14.92867233266326
CORVUS BC1              
1 42847U 17042Y   22155.82934133  .00000925  00000+0  93982-4 0  9997
2 42847  97.4246  14.1565 0010214  45.5212 314.6842 14.92974081266409
MIRATA                  
1 43015U 17073C   22155.67714724  .00002815  00000+0  20974-3 0  9994
2 43015  97.6754  51.4609 0238102 222.8729 135.3708 14.83849386245378
MAKERSAT 0              
1 43016U 17073D   22156.16649167  .00001672  00000+0  12930-3 0  9991
2 43016  97.6772  51.5404 0244743 225.4587 132.6409 14.82224449245365
AEROCUBE 7B (OCSD B)    
1 43042U 17071F   22155.86599807  .00107833  00000+0  63270-3 0  9998
2 43042  51.6325 107.9325 0005807  91.7798 268.3868 15.77436066253708
AEROCUBE 7C (OCSD C)    
1 43043U 17071G   22155.88540589  .00091532  00000+0  59003-3 0  9991
2 43043  51.6298 109.5303 0005300  89.4240 270.7367 15.75371060253651
ASGARDIA 1              
1 43049U 17071N   22156.16387738  .00062051  00000+0  48327-3 0  9995
2 43049  51.6310 110.0924 0004595  78.0515 282.0997 15.71106152253662
PROPCUBE 2 (FAUNA)      
1 43052U 17071R   22155.83497833  .00115592  00000+0  63975-3 0  9995
2 43052  51.6254 102.5512 0004913  89.4776 270.6788 15.78717629253734
CORVUS BC3              
1 43118U 18004H   22155.65840450  .00004537  00000+0  17274-3 0  9999
2 43118  97.3622 228.5306 0010245  55.7956 304.4253 15.27194835244267
MICROMAS-2A             
1 43131U 18004W   22155.51880936  .00013810  00000+0  39876-3 0  9998
2 43131  97.3753 234.7710 0006317  48.2763 311.9020 15.35766949244594
SPACEBEE-4              
1 43139U 18004AE  22155.20866855  .00026635  00000+0  59726-3 0  9991
2 43139  97.3847 239.1848 0003656  45.3243 314.8302 15.43382289244800
SPACEBEE-3              
1 43140U 18004AF  22156.20322430  .00048248  00000+0  78388-3 0  9999
2 43140  97.3885 243.7402 0000299 356.6665   3.4585 15.52568901245168
SPACEBEE-2              
1 43141U 18004AG  22155.19691168  .00067118  00000+0  93229-3 0  9992
2 43141  97.3910 244.1110 0001369 259.0325 101.0776 15.56794597245081
SPACEBEE-1              
1 43142U 18004AH  22156.18798698  .00097243  00000+0  10390-2 0  9998
2 43142  97.3900 246.7294 0004418 248.2902 111.7886 15.63582786245321
CICERO 7                
1 43143U 18004AJ  22156.19483171  .00009190  00000+0  28800-3 0  9997
2 43143  97.3730 235.0373 0006250  56.9983 303.1860 15.33282523244692
GOMX-4B                 
1 43196U 18015E   22155.89988791  .00003702  00000+0  14222-3 0  9997
2 43196  97.5325 295.1669 0018683 101.5219 258.8118 15.26934190241245
GOMX-4A                 
1 43197U 18015F   22156.09570399  .00005226  00000+0  18952-3 0  9999
2 43197  97.5309 296.1289 0018269 100.9432  17.1835 15.28641606241338
AEROCUBE 12A            
1 43556U 18046C   22155.84059172  .00010494  00000+0  27833-3 0  9996
2 43556  51.6367 245.3299 0007978 348.7701  11.3104 15.38854822217374
AEROCUBE 12B            
1 43557U 18046D   22155.63220848  .00007646  00000+0  21797-3 0  9992
2 43557  51.6378 250.6225 0007818 346.6089  13.4686 15.37039714217231
SURFSAT                 
1 43614U 18070B   22156.09273596  .00025845  00000+0  39271-3 0  9999
2 43614  93.0316  93.5026 0014744  75.5021 284.7876 15.54359080209145
CP7 (DAVE)              
1 43615U 18070C   22155.77011011  .00022954  00000+0  36358-3 0  9997
2 43615  93.0306  93.2303 0015110  76.7122 283.5824 15.53216325209067
ELFIN-B                 
1 43616U 18070D   22155.60549216  .00056052  00000+0  55910-3 0  9994
2 43616  93.0211  94.2554 0013300  76.8301 283.4451 15.65361829209340
ELFIN-A                 
1 43617U 18070E   22155.75438038  .00063037  00000+0  57892-3 0  9992
2 43617  93.0279  95.6386 0012288  75.5134 284.7498 15.67420517209412
CUBEBEL-1 (BSUSAT-1)    
1 43666U 18083E   22156.04229705  .00006773  00000+0  28988-3 0  9990
2 43666  97.4202 184.8681 0013568  24.9249  60.1055 15.23051064199597
CICERO 10               
1 43690U 18088A   22155.89794292  .00004703  00000+0  18833-3 0  9991
2 43690  85.0353 324.6726 0013311 185.5006 174.6094 15.24684040197846
IRVINE01                
1 43693U 18088D   22155.90315988  .00022190  00000+0  61014-3 0  9996
2 43693  85.0288 319.3515 0013560 154.1793 206.0136 15.36974546198297
PROXIMA I               
1 43694U 18088E   22155.73981076  .00005780  00000+0  22059-3 0  9997
2 43694  85.0291 321.5005 0018138 155.3456 204.8659 15.26264378198038
PROXIMA II              
1 43696U 18088G   22155.87092858  .00005811  00000+0  22188-3 0  9993
2 43696  85.0291 321.4310 0018188 154.8403 205.3731 15.26246719198046
